{
  "type": "FeatureCollection",
  "features": [
    {
      "type": "Feature",
      "properties": {
        "norad_id": 34944,
        "name": "COSMOS 2251 DEB",
        "group": "cosmos-2251-debris",
        "lat": -67.92500674087063,
        "lon": 75.04620768214117,
        "alt_km": 1000.44697299786,
        "timestamp": "2025-12-25T11:37:44.834971+00:00",
        "meta_object_name": "COSMOS 2251 DEB",
        "meta_object_id": "1993-036ADX",
        "meta_epoch": "2025-12-25T00:14:49.401600",
        "meta_mean_motion": 14.14207616,
        "meta_eccentricity": 0.0220004,
        "meta_inclination": 73.7462,
        "meta_ra_of_asc_node": 209.9012,
        "meta_arg_of_pericenter": 55.3787,
        "meta_mean_anomaly": 306.7883,
        "meta_ephemeris_type": 0,
        "meta_classification_type": "U",
        "meta_norad_cat_id": 34944,
        "meta_element_set_no": 999,
        "meta_rev_at_epoch": 64256,
        "meta_bstar": 0.00033518,
        "meta_mean_motion_dot": 7.8e-06,
        "meta_mean_motion_ddot": 0,
        "tle_line1": "1 34944U 93036ADX 25359.01029400  .00000780  00000+0  33518-3 0  9992",
        "tle_line2": "2 34944  73.7462 209.9012 0220004  55.3787 306.7883 14.14207616642561"
      },
      "geometry": {
        "type": "Point",
        "coordinates": [
          75.04620768214117,
          -67.92500674087063
        ]
      }
    },
    {
      "type": "Feature",
      "properties": {
        "norad_id": 34946,
        "name": "COSMOS 2251 DEB",
        "group": "cosmos-2251-debris",
        "lat": 25.1269531805116,
        "lon": -34.58076720041627,
        "alt_km": 670.7160403208863,
        "timestamp": "2025-12-25T11:37:44.834981+00:00",
        "meta_object_name": "COSMOS 2251 DEB",
        "meta_object_id": "1993-036ADZ",
        "meta_epoch": "2025-12-22T14:32:14.157024",
        "meta_mean_motion": 14.62044182,
        "meta_eccentricity": 0.00485038,
        "meta_inclination": 74.0239,
        "meta_ra_of_asc_node": 323.2107,
        "meta_arg_of_pericenter": 97.3579,
        "meta_mean_anomaly": 263.3103,
        "meta_ephemeris_type": 0,
        "meta_classification_type": "U",
        "meta_norad_cat_id": 34946,
        "meta_element_set_no": 999,
        "meta_rev_at_epoch": 88353,
        "meta_bstar": 0.00053383233,
        "meta_mean_motion_dot": 2.695e-05,
        "meta_mean_motion_ddot": 0,
        "tle_line1": "1 34946U 93036ADZ 25356.60571941  .00002695  00000+0  53383-3 0  9997",
        "tle_line2": "2 34946  74.0239 323.2107 0048503  97.3579 263.3103 14.62044182883538"
      },
      "geometry": {
        "type": "Point",
        "coordinates": [
          -34.58076720041627,
          25.1269531805116
        ]
      }
    },
    {
      "type": "Feature",
      "properties": {
        "norad_id": 34949,
        "name": "COSMOS 2251 DEB",
        "group": "cosmos-2251-debris",
        "lat": 61.033900743250896,
        "lon": -126.42057858315691,
        "alt_km": 663.3080466949705,
        "timestamp": "2025-12-25T11:37:44.834990+00:00",
        "meta_object_name": "COSMOS 2251 DEB",
        "meta_object_id": "1993-036AEC",
        "meta_epoch": "2025-12-24T23:42:11.920608",
        "meta_mean_motion": 14.74082304,
        "meta_eccentricity": 0.0080001,
        "meta_inclination": 74.0188,
        "meta_ra_of_asc_node": 85.7299,
        "meta_arg_of_pericenter": 228.4797,
        "meta_mean_anomaly": 130.9495,
        "meta_ephemeris_type": 0,
        "meta_classification_type": "U",
        "meta_norad_cat_id": 34949,
        "meta_element_set_no": 999,
        "meta_rev_at_epoch": 88542,
        "meta_bstar": 0.00055955,
        "meta_mean_motion_dot": 3.845e-05,
        "meta_mean_motion_ddot": 0,
        "tle_line1": "1 34949U 93036AEC 25358.98763797  .00003845  00000+0  55955-3 0  9990",
        "tle_line2": "2 34949  74.0188  85.7299 0080001 228.4797 130.9495 14.74082304885428"
      },
      "geometry": {
        "type": "Point",
        "coordinates": [
          -126.42057858315691,
          61.033900743250896
        ]
      }
    },
    {
      "type": "Feature",
      "properties": {
        "norad_id": 34953,
        "name": "COSMOS 2251 DEB",
        "group": "cosmos-2251-debris",
        "lat": -37.659001603902645,
        "lon": -164.38479225383114,
        "alt_km": 697.6759382837945,
        "timestamp": "2025-12-25T11:37:44.835001+00:00",
        "meta_object_name": "COSMOS 2251 DEB",
        "meta_object_id": "1993-036AEG",
        "meta_epoch": "2025-12-24T19:05:28.246848",
        "meta_mean_motion": 14.69063461,
        "meta_eccentricity": 0.00588062,
        "meta_inclination": 74.093,
        "meta_ra_of_asc_node": 4.23,
        "meta_arg_of_pericenter": 352.8678,
        "meta_mean_anomaly": 184.1969,
        "meta_ephemeris_type": 0,
        "meta_classification_type": "U",
        "meta_norad_cat_id": 34953,
        "meta_element_set_no": 999,
        "meta_rev_at_epoch": 88305,
        "meta_bstar": 0.00092055059,
        "meta_mean_motion_dot": 5.521e-05,
        "meta_mean_motion_ddot": 0,
        "tle_line1": "1 34953U 93036AEG 25358.79546582  .00005521  00000+0  92055-3 0  9990",
        "tle_line2": "2 34953  74.0930   4.2300 0058806 352.8678 184.1969 14.69063461883056"
      },
      "geometry": {
        "type": "Point",
        "coordinates": [
          -164.38479225383114,
          -37.659001603902645
        ]
      }
    },
    {
      "type": "Feature",
      "properties": {
        "norad_id": 34955,
        "name": "COSMOS 2251 DEB",
        "group": "cosmos-2251-debris",
        "lat": 4.007490995352833,
        "lon": -138.27553670760298,
        "alt_km": 554.2278049419056,
        "timestamp": "2025-12-25T11:37:44.835010+00:00",
        "meta_object_name": "COSMOS 2251 DEB",
        "meta_object_id": "1993-036AEJ",
        "meta_epoch": "2025-12-24T22:48:41.658624",
        "meta_mean_motion": 15.00737641,
        "meta_eccentricity": 0.0077736,
        "meta_inclination": 74.035,
        "meta_ra_of_asc_node": 221.6616,
        "meta_arg_of_pericenter": 288.4914,
        "meta_mean_anomaly": 70.7836,
        "meta_ephemeris_type": 0,
        "meta_classification_type": "U",
        "meta_norad_cat_id": 34955,
        "meta_element_set_no": 999,
        "meta_rev_at_epoch": 90217,
        "meta_bstar": 0.00061622,
        "meta_mean_motion_dot": 8.298e-05,
        "meta_mean_motion_ddot": 0,
        "tle_line1": "1 34955U 93036AEJ 25358.95048216  .00008298  00000+0  61622-3 0  9991",
        "tle_line2": "2 34955  74.0350 221.6616 0077736 288.4914  70.7836 15.00737641902171"
      },
      "geometry": {
        "type": "Point",
        "coordinates": [
          -138.27553670760298,
          4.007490995352833
        ]
      }
    },
    {
      "type": "Feature",
      "properties": {
        "norad_id": 34962,
        "name": "COSMOS 2251 DEB",
        "group": "cosmos-2251-debris",
        "lat": -12.594636484975842,
        "lon": -6.774031100813217,
        "alt_km": 740.6556439870919,
        "timestamp": "2025-12-25T11:37:44.835021+00:00",
        "meta_object_name": "COSMOS 2251 DEB",
        "meta_object_id": "1993-036AER",
        "meta_epoch": "2025-12-24T21:27:34.403616",
        "meta_mean_motion": 14.46552409,
        "meta_eccentricity": 0.0018915,
        "meta_inclination": 74.0287,
        "meta_ra_of_asc_node": 170.6598,
        "meta_arg_of_pericenter": 282.7442,
        "meta_mean_anomaly": 77.1602,
        "meta_ephemeris_type": 0,
        "meta_classification_type": "U",
        "meta_norad_cat_id": 34962,
        "meta_element_set_no": 999,
        "meta_rev_at_epoch": 87754,
        "meta_bstar": 0.00044037,
        "meta_mean_motion_dot": 1.563e-05,
        "meta_mean_motion_ddot": 0,
        "tle_line1": "1 34962U 93036AER 25358.89414819  .00001563  00000+0  44037-3 0  9997",
        "tle_line2": "2 34962  74.0287 170.6598 0018915 282.7442  77.1602 14.46552409877547"
      },
      "geometry": {
        "type": "Point",
        "coordinates": [
          -6.774031100813217,
          -12.594636484975842
        ]
      }
    },
    {
      "type": "Feature",
      "properties": {
        "norad_id": 34963,
        "name": "COSMOS 2251 DEB",
        "group": "cosmos-2251-debris",
        "lat": -54.08024651016882,
        "lon": -4.093078705333524,
        "alt_km": 728.2271668868862,
        "timestamp": "2025-12-25T11:37:44.835031+00:00",
        "meta_object_name": "COSMOS 2251 DEB",
        "meta_object_id": "1993-036AES",
        "meta_epoch": "2025-12-24T11:04:35.037696",
        "meta_mean_motion": 14.51189706,
        "meta_eccentricity": 0.00420275,
        "meta_inclination": 74.171,
        "meta_ra_of_asc_node": 20.8715,
        "meta_arg_of_pericenter": 215.0245,
        "meta_mean_anomaly": 144.8152,
        "meta_ephemeris_type": 0,
        "meta_classification_type": "U",
        "meta_norad_cat_id": 34963,
        "meta_element_set_no": 999,
        "meta_rev_at_epoch": 86971,
        "meta_bstar": 0.00126389,
        "meta_mean_motion_dot": 5.053e-05,
        "meta_mean_motion_ddot": 0,
        "tle_line1": "1 34963U 93036AES 25358.46151664  .00005053  00000+0  12639-2 0  9997",
        "tle_line2": "2 34963  74.1710  20.8715 0042027 215.0245 144.8152 14.51189706869712"
      },
      "geometry": {
        "type": "Point",
        "coordinates": [
          -4.093078705333524,
          -54.08024651016882
        ]
      }
    }
  ]
}